{
  "type": "FeatureCollection",
  "features": [
    {
      "type": "Feature",
      "properties": {},
      "geometry": {
        "type": "LineString",
        "coordinates": [
          [
            -58.4637908,
            -34.6979742
          ],
          [
            -58.4638664,
            -34.6979679
          ],
          [
            -58.463907,
            -34.6979495
          ],
          [
            -58.4639622,
            -34.6979058
          ],
          [
            -58.4640271,
            -34.6978229
          ],
          [
            -58.4640659,
            -34.6977266
          ],
          [
            -58.4640562,
            -34.6976199
          ],
          [
            -58.4640203,
            -34.6975316
          ],
          [
            -58.4638727,
            -34.6972811
          ],
          [
            -58.4638446,
            -34.6972341
          ],
          [
            -58.4638078,
            -34.6972022
          ],
          [
            -58.4637448,
            -34.6971783
          ],
          [
            -58.4636238,
            -34.6971338
          ],
          [
            -58.4635899,
            -34.6971154
          ],
          [
            -58.4633675,
            -34.696923
          ],
          [
            -58.4633424,
            -34.6969033
          ],
          [
            -58.4632989,
            -34.6968986
          ],
          [
            -58.4632658,
            -34.6969043
          ],
          [
            -58.4632075,
            -34.6969043
          ],
          [
            -58.4631583,
            -34.6968883
          ],
          [
            -58.4631217,
            -34.6968667
          ],
          [
            -58.4630886,
            -34.6968385
          ],
          [
            -58.4630634,
            -34.6968018
          ],
          [
            -58.462956,
            -34.6966101
          ],
          [
            -58.4629208,
            -34.6965171
          ],
          [
            -58.4628956,
            -34.6964215
          ],
          [
            -58.4628714,
            -34.6963085
          ],
          [
            -58.4628543,
            -34.6962667
          ],
          [
            -58.4628072,
            -34.6962041
          ],
          [
            -58.4607639,
            -34.6936285
          ],
          [
            -58.4606678,
            -34.6935147
          ],
          [
            -58.4605695,
            -34.693386
          ],
          [
            -58.4604002,
            -34.6931237
          ],
          [
            -58.4602244,
            -34.6928405
          ]
        ]
      }
    }
  ]
}