{
  "type": "FeatureCollection",
  "features": [
    {
      "type": "Feature",
      "properties": {},
      "geometry": {
        "type": "LineString",
        "coordinates": [
          [
            144.9735288,
            -37.8524806
          ],
          [
            144.9732097,
            -37.8526837
          ],
          [
            144.9731623,
            -37.8527099
          ],
          [
            144.9731174,
            -37.8527264
          ],
          [
            144.9730654,
            -37.8527394
          ],
          [
            144.9730174,
            -37.8527481
          ],
          [
            144.9729587,
            -37.8527542
          ],
          [
            144.972899,
            -37.8527587
          ],
          [
            144.9728419,
            -37.8527596
          ],
          [
            144.9727686,
            -37.8527554
          ],
          [
            144.9726999,
            -37.8527433
          ],
          [
            144.972638,
            -37.8527286
          ],
          [
            144.9725831,
            -37.8527141
          ],
          [
            144.9725342,
            -37.8526942
          ],
          [
            144.9724877,
            -37.8526731
          ],
          [
            144.972442,
            -37.8526481
          ],
          [
            144.9686049,
            -37.8495645
          ],
          [
            144.9685241,
            -37.8495083
          ],
          [
            144.9684231,
            -37.8494391
          ],
          [
            144.9682971,
            -37.8493579
          ],
          [
            144.9681672,
            -37.8492743
          ],
          [
            144.9680575,
            -37.8492037
          ],
          [
            144.9679135,
            -37.8491258
          ],
          [
            144.9677699,
            -37.8490493
          ]
        ]
      }
    }
  ]
}