{
  "type": "FeatureCollection",
  "features": [
    {
      "type": "Feature",
      "properties": {},
      "geometry": {
        "type": "LineString",
        "coordinates": [
          [
            5.9668579,
            50.4415324
          ],
          [
            5.9669475,
            50.4415068
          ],
          [
            5.9670696,
            50.441496
          ],
          [
            5.9671885,
            50.4414871
          ],
          [
            5.9672797,
            50.4414862
          ],
          [
            5.9673708,
            50.441497
          ],
          [
            5.9674542,
            50.4415186
          ],
          [
            5.9675176,
            50.441556
          ],
          [
            5.9675655,
            50.4416042
          ],
          [
            5.9675964,
            50.4416544
          ],
          [
            5.9676072,
            50.4417006
          ],
          [
            5.967601,
            50.4417597
          ],
          [
            5.967584,
            50.4418049
          ],
          [
            5.9675469,
            50.4418591
          ],
          [
            5.9674946,
            50.441933
          ],
          [
            5.9674483,
            50.441994
          ],
          [
            5.9673849,
            50.4420727
          ],
          [
            5.9669431,
            50.4425715
          ],
          [
            5.9668921,
            50.4426167
          ],
          [
            5.9668072,
            50.4426748
          ],
          [
            5.9663823,
            50.442969
          ],
          [
            5.9663483,
            50.4429965
          ],
          [
            5.9641985,
            50.4454345
          ],
          [
            5.9640085,
            50.4456614
          ],
          [
            5.9639639,
            50.4457181
          ],
          [
            5.9639474,
            50.4457833
          ],
          [
            5.9639623,
            50.4458463
          ],
          [
            5.9640151,
            50.4458978
          ],
          [
            5.9640827,
            50.4459314
          ],
          [
            5.9641503,
            50.4459461
          ],
          [
            5.9642262,
            50.4459545
          ],
          [
            5.964317,
            50.4459545
          ],
          [
            5.9644357,
            50.4459335
          ],
          [
            5.9646403,
            50.445882
          ],
          [
            5.9651204,
            50.4457381
          ],
          [
            5.9651996,
            50.4457192
          ],
          [
            5.9652936,
            50.4457097
          ]
        ]
      }
    }
  ]
}