{
  "type": "FeatureCollection",
  "features": [
    {
      "type": "Feature",
      "properties": {},
      "geometry": {
        "type": "LineString",
        "coordinates": [
          [
            8.5688902,
            49.3259269
          ],
          [
            8.5686005,
            49.3258467
          ],
          [
            8.5683266,
            49.3257756
          ],
          [
            8.5682078,
            49.3257635
          ],
          [
            8.5681004,
            49.325764
          ],
          [
            8.5680147,
            49.3257673
          ],
          [
            8.5679396,
            49.3257769
          ],
          [
            8.5678485,
            49.3257969
          ],
          [
            8.567767,
            49.3258248
          ],
          [
            8.5676824,
            49.3258584
          ],
          [
            8.5676122,
            49.3258998
          ],
          [
            8.5675681,
            49.3259351
          ],
          [
            8.5675328,
            49.3259709
          ],
          [
            8.5674874,
            49.3260217
          ],
          [
            8.5674515,
            49.3260744
          ],
          [
            8.5670232,
            49.3266537
          ],
          [
            8.5669106,
            49.3267711
          ],
          [
            8.566808,
            49.3268738
          ],
          [
            8.5665554,
            49.32712
          ],
          [
            8.5664878,
            49.3271933
          ],
          [
            8.5663753,
            49.3273172
          ],
          [
            8.5662902,
            49.3274199
          ],
          [
            8.5648617,
            49.3293561
          ],
          [
            8.5647188,
            49.3295469
          ],
          [
            8.5646665,
            49.3296309
          ],
          [
            8.5645933,
            49.3298155
          ],
          [
            8.5645415,
            49.3300024
          ],
          [
            8.5645342,
            49.3301514
          ],
          [
            8.5645658,
            49.3302464
          ],
          [
            8.5646241,
            49.330343
          ],
          [
            8.5648303,
            49.330666
          ],
          [
            8.564929,
            49.3308018
          ],
          [
            8.5650423,
            49.3309446
          ],
          [
            8.5653907,
            49.3312678
          ],
          [
            8.5660168,
            49.3317856
          ]
        ]
      }
    }
  ]
}