{
  "type": "FeatureCollection",
  "features": [
    {
      "type": "Feature",
      "properties": {},
      "geometry": {
        "type": "LineString",
        "coordinates": [
          [
            9.28075,
            45.614166
          ],
          [
            9.2807849,
            45.614432
          ],
          [
            9.2808231,
            45.6148056
          ],
          [
            9.2810236,
            45.6163004
          ],
          [
            9.2814361,
            45.6191996
          ],
          [
            9.2814362,
            45.6193186
          ],
          [
            9.2814132,
            45.6203604
          ]
        ]
      }
    }
  ]
}