{
  "type": "FeatureCollection",
  "features": [
    {
      "type": "Feature",
      "properties": {},
      "geometry": {
        "type": "LineString",
        "coordinates": [
          [
            7.4228314,
            43.7324693
          ],
          [
            7.4228172,
            43.7325133
          ],
          [
            7.4228156,
            43.7325549
          ],
          [
            7.4228139,
            43.7326026
          ],
          [
            7.4228114,
            43.7326587
          ],
          [
            7.4228089,
            43.7327111
          ],
          [
            7.4227822,
            43.732766
          ],
          [
            7.4227438,
            43.7328052
          ],
          [
            7.4226812,
            43.7328535
          ],
          [
            7.4226252,
            43.7328957
          ],
          [
            7.4225676,
            43.732947
          ],
          [
            7.4225042,
            43.7330055
          ],
          [
            7.4224449,
            43.7330652
          ],
          [
            7.4223748,
            43.7331503
          ],
          [
            7.4223172,
            43.7332244
          ],
          [
            7.4222613,
            43.7332986
          ],
          [
            7.4222304,
            43.7333409
          ],
          [
            7.4221861,
            43.7334151
          ],
          [
            7.4221477,
            43.7334766
          ],
          [
            7.4221093,
            43.7335417
          ],
          [
            7.4220693,
            43.7336153
          ],
          [
            7.4220284,
            43.7336919
          ],
          [
            7.4219833,
            43.7337908
          ],
          [
            7.4219407,
            43.7338898
          ],
          [
            7.4218723,
            43.7340713
          ],
          [
            7.4218255,
            43.7341925
          ],
          [
            7.4217886,
            43.7342935
          ],
          [
            7.4217202,
            43.7345077
          ],
          [
            7.4216742,
            43.7345879
          ],
          [
            7.421605,
            43.7346959
          ],
          [
            7.4215282,
            43.7348147
          ],
          [
            7.4214797,
            43.7348913
          ],
          [
            7.4214322,
            43.734983
          ],
          [
            7.4213812,
            43.7350807
          ],
          [
            7.4213579,
            43.7351235
          ],
          [
            7.4213295,
            43.7351597
          ],
          [
            7.4212819,
            43.7352122
          ]
        ]
      }
    }
  ]
}