{
  "type": "FeatureCollection",
  "features": [
    {
      "type": "Feature",
      "properties": {},
      "geometry": {
        "type": "LineString",
        "coordinates": [
          [
            -8.625639,
            37.226873
          ],
          [
            -8.6259579,
            37.2267333
          ],
          [
            -8.6261103,
            37.2266882
          ],
          [
            -8.6262591,
            37.22666
          ],
          [
            -8.6264239,
            37.2266515
          ],
          [
            -8.6280828,
            37.2266305
          ],
          [
            -8.6282269,
            37.226644
          ],
          [
            -8.6283349,
            37.2266625
          ],
          [
            -8.6284515,
            37.226698
          ],
          [
            -8.6285478,
            37.2267476
          ],
          [
            -8.6286486,
            37.2268195
          ],
          [
            -8.6287227,
            37.2269038
          ],
          [
            -8.62878,
            37.2269977
          ],
          [
            -8.6288298,
            37.2271009
          ],
          [
            -8.6311207,
            37.2334775
          ],
          [
            -8.6312418,
            37.2337832
          ],
          [
            -8.6313517,
            37.2340229
          ],
          [
            -8.6314615,
            37.2342453
          ],
          [
            -8.6316048,
            37.2345078
          ],
          [
            -8.6317362,
            37.234717
          ]
        ]
      }
    }
  ]
}