{
  "type": "FeatureCollection",
  "features": [
    {
      "type": "Feature",
      "properties": {},
      "geometry": {
        "type": "LineString",
        "coordinates": [
          [
            -115.1637259,
            36.1081192
          ],
          [
            -115.1637017,
            36.1081376
          ],
          [
            -115.1636558,
            36.1081597
          ],
          [
            -115.1636005,
            36.1081809
          ],
          [
            -115.163562,
            36.1081972
          ],
          [
            -115.1635249,
            36.1082158
          ],
          [
            -115.163398,
            36.1082864
          ],
          [
            -115.1633584,
            36.1083155
          ],
          [
            -115.1633239,
            36.1083539
          ],
          [
            -115.163219,
            36.1084739
          ],
          [
            -115.1631595,
            36.1085416
          ],
          [
            -115.1631294,
            36.108566
          ],
          [
            -115.1630897,
            36.1085866
          ],
          [
            -115.1630472,
            36.1085996
          ],
          [
            -115.1630036,
            36.1086049
          ],
          [
            -115.1629346,
            36.1086087
          ],
          [
            -115.1628673,
            36.1086163
          ],
          [
            -115.1628164,
            36.1086278
          ],
          [
            -115.1627693,
            36.1086461
          ],
          [
            -115.1605888,
            36.110628
          ],
          [
            -115.160553,
            36.110677
          ],
          [
            -115.1605275,
            36.1107286
          ],
          [
            -115.1605214,
            36.1107639
          ],
          [
            -115.1605252,
            36.1107969
          ],
          [
            -115.1605307,
            36.1108379
          ],
          [
            -115.1605439,
            36.1108834
          ],
          [
            -115.1605792,
            36.1109342
          ],
          [
            -115.1606198,
            36.1109789
          ],
          [
            -115.160758,
            36.1111237
          ]
        ]
      }
    },
    {
      "type": "Feature",
      "properties": {},
      "geometry": {
        "type": "LineString",
        "coordinates": [
          [
            -97.6417308,
            30.1351872
          ],
          [
            -97.6428748,
            30.1346697
          ],
          [
            -97.6429574,
            30.1346125
          ],
          [
            -97.6429975,
            30.1345472
          ],
          [
            -97.6430235,
            30.1344696
          ],
          [
            -97.6430258,
            30.1343899
          ],
          [
            -97.6430164,
            30.1343103
          ],
          [
            -97.6429881,
            30.1342348
          ],
          [
            -97.6429432,
            30.1341613
          ],
          [
            -97.6428889,
            30.1341102
          ],
          [
            -97.6392585,
            30.1316464
          ],
          [
            -97.6388716,
            30.131383
          ],
          [
            -97.638472,
            30.1310696
          ],
          [
            -97.6377701,
            30.1305758
          ],
          [
            -97.6372738,
            30.1302321
          ]
        ]
      }
    }
  ]
}